NORAD_CAT_ID,OBJECT_NAME,OBJECT_TYPE,EPOCH,MEAN_MOTION,ECCENTRICITY,INCLINATION,RA_OF_ASC_NODE,ARG_OF_PERICENTER,MEAN_ANOMALY,BSTAR,MEAN_MOTION_DOT,MEAN_MOTION_DDOT,TLE_LINE0,TLE_LINE1,TLE_LINE2,SEMIMAJOR_AXIS,PERIOD,APOGEE,PERIGEE,DECAYED
55284.0,STARLINK-5337,PAYLOAD,2024-07-22 22:45:56,14.98324196,0.0002937,70.0008,103.8411,267.479,92.6033,0.00045758,5.37e-05,0.0,0 STARLINK-5337,1 55284U 23010R   24204.94856721  .00005370  00000-0  45758-3 0  9991,2 55284  70.0008 103.8411 0002937 267.4790  92.6033 14.98324196 83691,6950.211,96.107,574.117,570.035,0.0
55284.0,STARLINK-5337,PAYLOAD,2024-07-23 03:34:19,14.98345411,0.0003001,70.0006,103.3372,264.389,95.6927,0.0002236,2.577e-05,0.0,0 STARLINK-5337,1 55284U 23010R   24205.14883322  .00002577  00000-0  22360-3 0  9991,2 55284  70.0006 103.3372 0003001 264.3890  95.6927 14.98345411 83429,6950.145,96.106,574.096,569.924,0.0
55284.0,STARLINK-5337,PAYLOAD,2024-07-23 16:23:24,14.98334605,0.0001752,70.0027,101.9916,258.398,101.6983,0.00020341,2.335e-05,0.0,0 STARLINK-5337,1 55284U 23010R   24205.68292421  .00002335  00000-0  20341-3 0  9993,2 55284  70.0027 101.9916 0001752 258.3980 101.6983 14.98334605 83506,6950.179,96.107,573.261,570.826,0.0
55284.0,STARLINK-5337,PAYLOAD,2024-07-23 22:47:57,14.9832665,0.0002714,70.0008,101.3157,265.2029,94.882,5.9156e-05,6.13e-06,0.0,0 STARLINK-5337,1 55284U 23010R   24205.94996962  .00000613  00000-0  59156-4 0  9997,2 55284  70.0008 101.3157 0002714 265.2029  94.8820 14.98326650 83847,6950.203,96.107,573.955,570.182,0.0
55284.0,STARLINK-5337,PAYLOAD,2024-07-24 03:36:21,14.98324133,0.0002844,70.0007,100.8095,270.3931,89.6902,3.6388e-05,3.41e-06,0.0,0 STARLINK-5337,1 55284U 23010R   24206.15025291  .00000341  00000-0  36388-4 0  9999,2 55284  70.0007 100.8095 0002844 270.3931  89.6902 14.98324133 83571,6950.211,96.107,574.053,570.099,0.0
55284.0,STARLINK-5337,PAYLOAD,2024-07-24 22:49:57,14.9834495,0.0003542,69.9992,98.7901,258.0226,102.0536,5.0873e-05,5.14e-06,0.0,0 STARLINK-5337,1 55284U 23010R   24206.95135559  .00000514  00000-0  50873-4 0  9993,2 55284  69.9992  98.7901 0003542 258.0226 102.0536 14.98344950 83996,6950.147,96.106,574.473,569.55,0.0
55284.0,STARLINK-5337,PAYLOAD,2024-07-25 02:02:13,14.9834473,0.0003567,70.0013,98.4538,240.1563,119.9242,0.00030518,3.552e-05,0.0,0 STARLINK-5337,1 55284U 23010R   24207.08487409  .00003552  00000-0  30518-3 0  9990,2 55284  70.0013  98.4538 0003567 240.1563 119.9242 14.98344730 83716,6950.147,96.106,574.491,569.533,0.0
55284.0,STARLINK-5337,PAYLOAD,2024-07-25 16:27:26,14.98332303,0.0002118,70.0025,96.944,280.7876,79.3045,0.00038138,4.461e-05,0.0,0 STARLINK-5337,1 55284U 23010R   24207.68572444  .00004461  00000-0  38138-3 0  9996,2 55284  70.0025  96.9440 0002118 280.7876  79.3045 14.98332303 83805,6950.186,96.107,573.523,570.579,0.0
55284.0,STARLINK-5337,PAYLOAD,2024-07-26 02:04:15,14.98326642,0.0003083,69.9997,95.9292,269.5611,90.5195,0.00020009,2.295e-05,0.0,0 STARLINK-5337,1 55284U 23010R   24208.08628547  .00002295  00000-0  20009-3 0  9998,2 55284  69.9997  95.9292 0003083 269.5611  90.5195 14.98326642 83864,6950.203,96.107,574.211,569.926,0.0
55284.0,STARLINK-5337,PAYLOAD,2024-07-26 14:53:19,14.98336975,0.0002842,69.9997,94.5832,269.9944,90.0889,9.0399e-05,9.86e-06,0.0,0 STARLINK-5337,1 55284U 23010R   24208.62036046  .00000986  00000-0  90399-4 0  9990,2 55284  69.9997  94.5832 0002842 269.9944  90.0889 14.98336975 84242,6950.171,96.107,574.012,570.061,0.0
55284.0,STARLINK-5337,PAYLOAD,2024-07-26 16:29:27,14.98340003,0.0003012,69.9994,94.4138,267.4176,92.6639,7.6593e-05,8.21e-06,0.0,0 STARLINK-5337,1 55284U 23010R   24208.68711855  .00000821  00000-0  76593-4 0  9992,2 55284  69.9994  94.4138 0003012 267.4176  92.6639 14.98340003 83952,6950.162,96.106,574.12,569.934,0.0
55284.0,STARLINK-5337,PAYLOAD,2024-07-27 21:19:51,14.98343759,0.0003108,70.0005,91.3817,265.348,94.7324,-0.00020646,-2.556e-05,0.0,0 STARLINK-5337,1 55284U 23010R   24209.88879047 -.00002556  00000-0 -20646-3 0  9999,2 55284  70.0005  91.3817 0003108 265.3480  94.7324 14.98343759 84438,6950.15,96.106,574.175,569.855,0.0
55284.0,STARLINK-5337,PAYLOAD,2024-07-28 02:08:16,14.98329679,0.0003705,69.9984,90.873,272.1064,87.9671,5.6236e-05,5.78e-06,0.0,0 STARLINK-5337,1 55284U 23010R   24210.08908189  .00000578  00000-0  56236-4 0  9998,2 55284  69.9984  90.8730 0003705 272.1064  87.9671 14.98329679 84160,6950.194,96.107,574.634,569.484,0.0
55284.0,STARLINK-5337,PAYLOAD,2024-07-28 22:58:01,14.98335657,0.000325,69.9996,88.6905,273.3996,86.6792,8.216e-05,8.88e-06,0.0,0 STARLINK-5337,1 55284U 23010R   24210.95695906  .00000888  00000-0  82160-4 0  9993,2 55284  69.9996  88.6905 0003250 273.3996  86.6792 14.98335657 84594,6950.175,96.107,574.299,569.782,0.0
55284.0,STARLINK-5337,PAYLOAD,2024-07-29 02:10:17,14.98338588,0.0003196,69.9994,88.3538,273.9183,86.161,0.00010898,1.208e-05,0.0,0 STARLINK-5337,1 55284U 23010R   24211.09047722  .00001208  00000-0  10898-3 0  9991,2 55284  69.9994  88.3538 0003196 273.9183  86.1610 14.98338588 84314,6950.166,96.106,574.253,569.81,0.0
55284.0,STARLINK-5337,PAYLOAD,2024-07-29 08:34:49,14.98329409,0.0003115,69.9997,87.6804,275.419,84.6613,0.00025384,2.937e-05,0.0,0 STARLINK-5337,1 55284U 23010R   24211.35751835  .00002937  00000-0  25384-3 0  9993,2 55284  69.9997  87.6804 0003115 275.4190  84.6613 14.98329409 84656,6950.195,96.107,574.225,569.895,0.0
55284.0,STARLINK-5337,PAYLOAD,2024-07-29 21:23:54,14.98332397,0.0003029,69.9999,86.3343,273.2836,86.7977,0.00028596,3.321e-05,0.0,0 STARLINK-5337,1 55284U 23010R   24211.89159969  .00003321  00000-0  28596-3 0  9998,2 55284  69.9999  86.3343 0003029 273.2836  86.7977 14.98332397 84431,6950.185,96.107,574.156,569.945,0.0
55284.0,STARLINK-5337,PAYLOAD,2024-07-30 15:01:22,14.98337683,0.0002923,70.0017,84.4831,271.7334,88.3491,0.00017663,2.016e-05,0.0,0 STARLINK-5337,1 55284U 23010R   24212.62595812  .00002016  00000-0  17663-3 0  9994,2 55284  70.0017  84.4831 0002923 271.7334  88.3491 14.98337683 84841,6950.169,96.107,574.066,570.003,0.0
55284.0,STARLINK-5337,PAYLOAD,2024-07-30 21:25:54,14.98339168,0.0002922,70.0017,83.8101,270.2066,89.8759,0.00018858,2.158e-05,0.0,0 STARLINK-5337,1 55284U 23010R   24212.89299640  .00002158  00000-0  18858-3 0  9997,2 55284  70.0017  83.8101 0002922 270.2066  89.8759 14.98339168 84583,6950.165,96.106,574.06,569.999,0.0
55284.0,STARLINK-5337,PAYLOAD,2024-07-30 23:02:02,14.98338002,0.0002951,70.0016,83.6418,269.391,90.6911,0.00015903,1.805e-05,0.0,0 STARLINK-5337,1 55284U 23010R   24212.95975659  .00001805  00000-0  15903-3 0  9991,2 55284  70.0016  83.6418 0002951 269.3910  90.6911 14.98338002 84890,6950.168,96.106,574.084,569.982,0.0
55284.0,STARLINK-5337,PAYLOAD,2024-07-31 08:38:51,14.98333597,0.0002937,70.0016,82.6319,270.236,89.8463,5.6294e-05,5.79e-06,0.0,0 STARLINK-5337,1 55284U 23010R   24213.36031787  .00000579  00000-0  56294-4 0  9998,2 55284  70.0016  82.6319 0002937 270.2360  89.8463 14.98333597 84653,6950.182,96.107,574.088,570.005,0.0
55284.0,STARLINK-5337,PAYLOAD,2024-07-31 15:03:24,14.98327183,0.0002876,70.0025,81.9592,271.6198,88.4632,-9.9647e-05,-1.282e-05,0.0,0 STARLINK-5337,1 55284U 23010R   24213.62736120 -.00001282  00000-0 -99647-4 0  9993,2 55284  70.0025  81.9592 0002876 271.6198  88.4632 14.98327183 84998,6950.202,96.107,574.065,570.068,0.0
55284.0,STARLINK-5337,PAYLOAD,2024-07-31 21:27:56,14.98326069,0.0002779,70.0006,81.2857,268.0288,92.0552,-1.817e-05,-3.1e-06,0.0,0 STARLINK-5337,1 55284U 23010R   24213.89440561 -.00000310  00000-0 -18170-4 0  9996,2 55284  70.0006  81.2857 0002779 268.0288  92.0552 14.98326069 84732,6950.205,96.107,574.002,570.139,0.0
55284.0,STARLINK-5337,PAYLOAD,2024-07-31 23:04:04,14.98327145,0.0002772,70.0004,81.1166,268.0316,92.0526,-4.5986e-05,-6.42e-06,0.0,0 STARLINK-5337,1 55284U 23010R   24213.96116541 -.00000642  00000-0 -45986-4 0  9995,2 55284  70.0004  81.1166 0002772 268.0316  92.0526 14.98327145 85049,6950.202,96.107,573.993,570.14,0.0
55284.0,STARLINK-5337,PAYLOAD,2024-08-01 08:40:52,14.98334832,0.0002967,69.9999,80.107,272.5404,87.5415,7.4826e-06,-4e-08,0.0,0 STARLINK-5337,1 55284U 23010R   24214.36171906 -.00000004  00000-0  74826-5 0  9993,2 55284  69.9999  80.1070 0002967 272.5404  87.5415 14.98334832 84806,6950.178,96.107,574.105,569.981,0.0
55284.0,STARLINK-5337,PAYLOAD,2024-08-01 23:06:04,14.98341036,0.0003045,69.9998,78.5917,271.468,88.613,0.00014148,1.596e-05,0.0,0 STARLINK-5337,1 55284U 23010R   24214.96255079  .00001596  00000-0  14148-3 0  9998,2 55284  69.9998  78.5917 0003045 271.4680  88.6130 14.98341036 85191,6950.159,96.106,574.14,569.907,0.0
55284.0,STARLINK-5337,PAYLOAD,2024-08-02 00:42:12,14.9834196,0.0003044,69.9999,78.4234,271.5041,88.5769,0.00015229,1.725e-05,0.0,0 STARLINK-5337,1 55284U 23010R   24215.02930979  .00001725  00000-0  15229-3 0  9990,2 55284  69.9999  78.4234 0003044 271.5041  88.5769 14.98341960 84905,6950.156,96.106,574.137,569.905,0.0
55284.0,STARLINK-5337,PAYLOAD,2024-08-02 13:31:17,14.98326685,0.0002837,70.0004,77.0764,271.1795,88.9039,0.00018348,2.097e-05,0.0,0 STARLINK-5337,1 55284U 23010R   24215.56340079  .00002097  00000-0  18348-3 0  9993,2 55284  70.0004  77.0764 0002837 271.1795  88.9039 14.98326685 84988,6950.203,96.107,574.04,570.096,0.0
55284.0,STARLINK-5337,PAYLOAD,2024-08-02 15:07:26,14.98321675,0.0002924,70.0001,76.9078,269.7893,90.2931,0.00011628,1.294e-05,0.0,0 STARLINK-5337,1 55284U 23010R   24215.63016495  .00001294  00000-0  11628-3 0  9995,2 55284  70.0001  76.9078 0002924 269.7893  90.2931 14.98321675 85296,6950.219,96.108,574.116,570.051,0.0
55284.0,STARLINK-5337,PAYLOAD,2024-08-02 21:31:58,14.98325003,0.0003012,69.9998,76.234,267.5309,92.5505,0.0001016,1.119e-05,0.0,0 STARLINK-5337,1 55284U 23010R   24215.89720390  .00001119  00000-0  10160-3 0  9995,2 55284  69.9998  76.2340 0003012 267.5309  92.5505 14.98325003 85336,6950.208,96.107,574.167,569.98,0.0
